H1 CPF 01  gfz 2022 08 30 00  7421 terrasarx 
H2 0702601  6201 31698    2022 08 30 00 59 42 2022 09 04 00 00 42   120 1 1  0 0 0
H9
10 0 59825  22302.000000  0    6442692.892   -596616.540  -2375120.299
10 0 59825  22422.000000  0    6060003.957   -740921.098  -3200419.155
10 0 59825  22542.000000  0    5569395.169   -864675.657  -3969566.625
10 0 59825  22662.000000  0    4979909.724   -963930.711  -4669140.696
10 0 59825  22782.000000  0    4302357.247  -1035341.005  -5286966.968
10 0 59825  22902.000000  0    3549105.183  -1076250.525  -5812323.726
10 0 59825  23022.000000  0    2733844.264  -1084761.804  -6236118.540
10 0 59825  23142.000000  0    1871334.627  -1059786.769  -6551034.277
10 0 59825  23262.000000  0     977137.575  -1001079.129  -6751644.209
10 0 59825  23382.000000  0      67337.430   -909249.395  -6834496.154
10 0 59825  23502.000000  0    -841742.838   -785760.339  -6798165.105
10 0 59825  23622.000000  0   -1733827.342   -632904.269  -6643275.230
10 0 59825  23742.000000  0   -2592972.570   -453761.455  -6372489.991
10 0 59825  23862.000000  0   -3403845.524   -252141.157  -5990470.131
10 0 59825  23982.000000  0   -4151993.053    -32505.571  -5503803.352
10 0 59825  24102.000000  0   -4824100.564    200122.384  -4920901.443
10 0 59825  24222.000000  0   -5408232.343    440265.270  -4251866.549
10 0 59825  24342.000000  0   -5894052.362    682110.912  -3508327.748
10 0 59825  24462.000000  0   -6273018.556    919643.210  -2703247.202
10 0 59825  24582.000000  0   -6538545.752   1146780.841  -1850699.030
10 0 59825  24702.000000  0   -6686132.916   1357520.602   -965624.907
10 0 59825  24822.000000  0   -6713452.169   1546082.666    -63568.644
10 0 59825  24942.000000  0   -6620392.112   1707052.153    839603.979
10 0 59825  25062.000000  0   -6409057.704   1835515.448   1727991.361
10 0 59825  25182.000000  0   -6083726.138   1927187.246   2585945.115
10 0 59825  25302.000000  0   -5650758.393   1978524.380   3398354.807
10 0 59825  25422.000000  0   -5118468.481   1986822.901   4150921.464
10 0 59825  25542.000000  0   -4496954.837   1950296.769   4830412.898
10 0 59825  25662.000000  0   -3797899.566   1868136.548   5424896.559
10 0 59825  25782.000000  0   -3034340.923   1740547.074   5923947.202
10 0 59825  25902.000000  0   -2220422.351   1568763.536   6318826.958
10 0 59825  26022.000000  0   -1371123.139   1355044.663   6602632.628
10 0 59825  26142.000000  0    -501978.576   1102643.772   6770409.069
10 0 59825  26262.000000  0     371204.727    815759.068   6819229.307
10 0 59825  26382.000000  0    1232635.294    499463.354   6748242.199
10 0 59825  26502.000000  0    2066820.998    159614.750   6558686.238
10 0 59825  26622.000000  0    2858846.539   -197250.857   6253870.137
10 0 59825  26742.000000  0    3594641.237   -564044.305   5839119.725
10 0 59825  26862.000000  0    4261232.016   -933261.984   5321689.883
10 0 59825  26982.000000  0    4846976.731  -1297137.614   4710643.761
10 0 59825  27102.000000  0    5341774.596  -1647803.319   4016699.898
10 0 59825  27222.000000  0    5737249.382  -1977456.943   3252048.019
10 0 59825  27342.000000  0    6026900.413  -2278533.111   2430135.885
10 0 59825  27462.000000  0    6206217.060  -2543872.859   1565431.005
10 0 59825  27582.000000  0    6272755.016  -2766887.577    673161.909
10 0 59825  27702.000000  0    6226171.201  -2941713.948   -230957.682
10 0 59825  27822.000000  0    6068216.049  -3063355.099  -1131014.062
10 0 59825  27942.000000  0    5802682.743  -3127804.286  -2011183.609
10 0 59825  28062.000000  0    5435314.743  -3132147.707  -2856018.096
10 0 59825  28182.000000  0    4973676.689  -3074644.486  -3650720.827
10 0 59825  28302.000000  0    4426990.771  -2954782.531  -4381407.415
10 0 59825  28422.000000  0    3805943.612  -2773309.187  -5035347.104
10 0 59825  28542.000000  0    3122467.723  -2532235.136  -5601178.658
10 0 59825  28662.000000  0    2389506.118  -2234813.359  -6069097.497
10 0 59825  28782.000000  0    1620765.086  -1885494.907  -6431015.703
10 0 59825  28902.000000  0     830456.482  -1489859.965  -6680692.232
10 0 59825  29022.000000  0      33036.577  -1054527.121  -6813829.371
10 0 59825  29142.000000  0    -757053.715   -587043.351  -6828138.166
10 0 59825  29262.000000  0   -1525644.020    -95755.841  -6723373.220
10 0 59825  29382.000000  0   -2259083.100    410333.670  -6501335.954
10 0 59825  29502.000000  0   -2944475.509    921729.251  -6165846.376
10 0 59825  29622.000000  0   -3569904.142   1428614.094  -5722685.011
10 0 59825  29742.000000  0   -4124637.540   1921034.415  -5179504.432
10 0 59825  29862.000000  0   -4599317.996   2389092.106  -4545708.859
10 0 59825  29982.000000  0   -4986125.569   2823142.646  -3832301.508
10 0 59825  30102.000000  0   -5278914.504   3213992.523  -3051702.946
10 0 59825  30222.000000  0   -5473320.819   3553094.228  -2217542.402
10 0 59825  30342.000000  0   -5566836.009   3832733.979  -1344422.832
10 0 59825  30462.000000  0   -5558845.305   4046206.140   -447664.218
10 0 59825  30582.000000  0   -5450628.208   4187970.502    456969.685
10 0 59825  30702.000000  0   -5245320.858   4253788.296   1353556.884
10 0 59825  30822.000000  0   -4947838.940   4240831.173   2226306.997
10 0 59825  30942.000000  0   -4564764.923   4147761.724   3059847.723
10 0 59825  31062.000000  0   -4104202.778   3974784.715   3839503.178
10 0 59825  31182.000000  0   -3575603.377   3723665.311   4551557.775
10 0 59825  31302.000000  0   -2989566.118   3397715.700   5183499.890
10 0 59825  31422.000000  0   -2357620.569   3001750.241   5724241.362
10 0 59825  31542.000000  0   -1691994.365   2542010.852   6164308.911
10 0 59825  31662.000000  0   -1005371.784   2026064.071   6496004.758
10 0 59825  31782.000000  0    -310649.989   1462672.477   6713533.189
10 0 59825  31902.000000  0     379302.639    861643.755   6813096.483
10 0 59825  32022.000000  0    1051884.622    233659.051   6792956.720
10 0 59825  32142.000000  0    1694990.281   -409916.101   6653464.126
10 0 59825  32262.000000  0    2297226.812  -1057236.864   6397052.135
10 0 59825  32382.000000  0    2848116.129  -1696196.249   6028198.054
10 0 59825  32502.000000  0    3338279.592  -2314651.435   5553350.512
10 0 59825  32622.000000  0    3759601.047  -2900655.476   4980822.160
10 0 59825  32742.000000  0    4105365.706  -3442690.137   4320650.262
10 0 59825  32862.000000  0    4370372.150  -3929895.994   3584425.308
10 0 59825  32982.000000  0    4551015.025  -4352294.578   2785090.023
10 0 59825  33102.000000  0    4645336.642  -4700997.223   1936711.106
10 0 59825  33222.000000  0    4653044.762  -4968394.757   1054227.663
10 0 59825  33342.000000  0    4575496.030  -5148324.243    153181.987
10 0 59825  33462.000000  0    4415645.431  -5236207.474   -750561.727
10 0 59825  33582.000000  0    4177964.853  -5229158.745  -1641105.384
10 0 59825  33702.000000  0    3868329.650  -5126057.719  -2502805.560
10 0 59825  33822.000000  0    3493878.318  -4927586.353  -3320554.657
10 0 59825  33942.000000  0    3062848.619  -4636228.969  -4080049.389
10 0 59825  34062.000000  0    2584394.918  -4256237.467  -4768041.110
10 0 59825  34182.000000  0    2068391.156  -3793560.931  -5372563.287
10 0 59825  34302.000000  0    1525225.643  -3255743.451  -5883130.607
10 0 59825  34422.000000  0     965592.245  -2651795.123  -6290910.521
10 0 59825  34542.000000  0     400280.763  -1992036.675  -6588865.881
10 0 59825  34662.000000  0    -160028.731  -1287920.182  -6771865.605
10 0 59825  34782.000000  0    -704962.978   -551830.429  -6836763.228
10 0 59825  34902.000000  0   -1224642.289    203129.491  -6782444.589
10 0 59825  35022.000000  0   -1709855.634    963365.643  -6609844.147
10 0 59825  35142.000000  0   -2152220.016   1715031.796  -6321930.583
10 0 59825  35262.000000  0   -2544322.426   2444275.238  -5923661.429
10 0 59825  35382.000000  0   -2879844.037   3137487.735  -5421907.636
10 0 59825  35502.000000  0   -3153663.467   3781558.125  -4825346.568
10 0 59825  35622.000000  0   -3361938.632   4364122.264  -4144323.375
10 0 59825  35742.000000  0   -3502163.400   4873804.584  -3390680.426
10 0 59825  35862.000000  0   -3573197.223   5300445.135  -2577558.845
10 0 59825  35982.000000  0   -3575269.288   5635309.322  -1719175.523
10 0 59825  36102.000000  0   -3509955.251   5871275.580   -830575.887
10 0 59825  36222.000000  0   -3380125.229   6002993.380     72633.329
10 0 59825  36342.000000  0   -3189866.789   6027007.367    974563.291
10 0 59825  36462.000000  0   -2944382.070   5941845.653   1859332.623
10 0 59825  36582.000000  0   -2649859.652   5748066.180   2711357.829
10 0 59825  36702.000000  0   -2313327.394   5448260.410   3515635.998
10 0 59825  36822.000000  0   -1942490.743   5047016.838   4258014.407
10 0 59825  36942.000000  0   -1545560.028   4550845.071   4925442.846
10 0 59825  37062.000000  0   -1131070.231   3968062.803   5506204.039
10 0 59825  37182.000000  0    -707698.269   3308647.507   5990116.813
10 0 59825  37302.000000  0    -284082.819   2584057.435   6368709.843
10 0 59825  37422.000000  0     131350.487   1807026.545   6635363.437
10 0 59825  37542.000000  0     530555.269    991337.185   6785419.923
10 0 59825  37662.000000  0     906019.155    151573.332   6816259.238
10 0 59825  37782.000000  0    1250903.917   -697139.053   6727341.683
10 0 59825  37902.000000  0    1559169.458  -1539404.025   6520217.811
10 0 59825  38022.000000  0    1825679.839  -2359834.225   6198503.265
10 0 59825  38142.000000  0    2046289.493  -3143332.722   5767820.297
10 0 59825  38262.000000  0    2217908.469  -3875373.289   5235704.717
10 0 59825  38382.000000  0    2338545.028  -4542273.131   4611479.216
10 0 59825  38502.000000  0    2407325.958  -5131454.046   3906095.986
10 0 59825  38622.000000  0    2424494.348  -5631687.930   3131947.941
10 0 59825  38742.000000  0    2391381.876  -6033319.709   2302651.614
99
